ONEWEB-0110             
1 47260U 20100C   23080.43381168 -.00000291  00000+0 -84457-3 0  9993
2 47260  87.8978 225.8042 0001770 110.9634 249.1684 13.12444816109457
